[{"OBJECT_NAME":"STARLINK-32868","OBJECT_ID":"2025-022A","EPOCH":"2025-12-10T06:21:30.284640","MEAN_MOTION":15.30242286,"ECCENTRICITY":2.007e-5,"INCLINATION":53.1576,"RA_OF_ASC_NODE":184.6397,"ARG_OF_PERICENTER":170.8253,"MEAN_ANOMALY":189.2751,"EPHEMERIS_TYPE":0,"CLASSIFICATION_TYPE":"U","NORAD_CAT_ID":62854,"ELEMENT_SET_NO":999,"REV_AT_EPOCH":4902,"BSTAR":0.0013783954,"MEAN_MOTION_DOT":0.00040743,"MEAN_MOTION_DDOT":0},{"OBJECT_NAME":"STARLINK-32867","OBJECT_ID":"2025-022B","EPOCH":"2025-12-09T22:35:48.312096","MEAN_MOTION":15.30223515,"ECCENTRICITY":6.57e-5,"INCLINATION":53.1569,"RA_OF_ASC_NODE":186.1666,"ARG_OF_PERICENTER":127.7929,"MEAN_ANOMALY":232.3132,"EPHEMERIS_TYPE":0,"CLASSIFICATION_TYPE":"U","NORAD_CAT_ID":62855,"ELEMENT_SET_NO":999,"REV_AT_EPOCH":4816,"BSTAR":0.0011017945,"MEAN_MOTION_DOT":0.00032439,"MEAN_MOTION_DDOT":0},{"OBJECT_NAME":"STARLINK-32860","OBJECT_ID":"2025-022C","EPOCH":"2025-12-10T06:09:31.014144","MEAN_MOTION":15.30228128,"ECCENTRICITY":2.827e-5,"INCLINATION":53.1575,"RA_OF_ASC_NODE":185.2945,"ARG_OF_PERICENTER":357.5758,"MEAN_ANOMALY":2.5241,"EPHEMERIS_TYPE":0,"CLASSIFICATION_TYPE":"U","NORAD_CAT_ID":62856,"ELEMENT_SET_NO":999,"REV_AT_EPOCH":4820,"BSTAR":0.0011375179,"MEAN_MOTION_DOT":0.00033512,"MEAN_MOTION_DDOT":0},{"OBJECT_NAME":"STARLINK-32873","OBJECT_ID":"2025-022D","EPOCH":"2025-12-09T23:51:47.335104","MEAN_MOTION":15.30225255,"ECCENTRICITY":7.615e-5,"INCLINATION":53.1576,"RA_OF_ASC_NODE":186.5074,"ARG_OF_PERICENTER":77.5433,"MEAN_ANOMALY":282.5653,"EPHEMERIS_TYPE":0,"CLASSIFICATION_TYPE":"U","NORAD_CAT_ID":62857,"ELEMENT_SET_NO":999,"REV_AT_EPOCH":4816,"BSTAR":0.001317532,"MEAN_MOTION_DOT":0.00038897,"MEAN_MOTION_DDOT":0},{"OBJECT_NAME":"STARLINK-32866","OBJECT_ID":"2025-022E","EPOCH":"2025-12-10T06:32:08.745216","MEAN_MOTION":15.30217328,"ECCENTRICITY":0.00028707,"INCLINATION":53.1583,"RA_OF_ASC_NODE":184.6833,"ARG_OF_PERICENTER":76.4614,"MEAN_ANOMALY":283.6706,"EPHEMERIS_TYPE":0,"CLASSIFICATION_TYPE":"U","NORAD_CAT_ID":62858,"ELEMENT_SET_NO":999,"REV_AT_EPOCH":4821,"BSTAR":0.0015316638,"MEAN_MOTION_DOT":0.00045308,"MEAN_MOTION_DDOT":0},{"OBJECT_NAME":"STARLINK-32869","OBJECT_ID":"2025-022F","EPOCH":"2025-12-10T06:48:50.658624","MEAN_MOTION":15.30266368,"ECCENTRICITY":0.00015331,"INCLINATION":53.1607,"RA_OF_ASC_NODE":184.7436,"ARG_OF_PERICENTER":85.3855,"MEAN_ANOMALY":274.7321,"EPHEMERIS_TYPE":0,"CLASSIFICATION_TYPE":"U","NORAD_CAT_ID":62859,"ELEMENT_SET_NO":999,"REV_AT_EPOCH":4821,"BSTAR":0.0013329847,"MEAN_MOTION_DOT":0.00039411,"MEAN_MOTION_DDOT":0},{"OBJECT_NAME":"STARLINK-32831","OBJECT_ID":"2025-022G","EPOCH":"2025-12-10T07:01:01.667424","MEAN_MOTION":15.30203959,"ECCENTRICITY":0.00020902,"INCLINATION":53.16,"RA_OF_ASC_NODE":184.8121,"ARG_OF_PERICENTER":82.1131,"MEAN_ANOMALY":278.0107,"EPHEMERIS_TYPE":0,"CLASSIFICATION_TYPE":"U","NORAD_CAT_ID":62860,"ELEMENT_SET_NO":999,"REV_AT_EPOCH":4820,"BSTAR":0.0014323486,"MEAN_MOTION_DOT":0.00042311,"MEAN_MOTION_DDOT":0},{"OBJECT_NAME":"STARLINK-32859","OBJECT_ID":"2025-022H","EPOCH":"2025-12-10T06:15:35.965152","MEAN_MOTION":15.30215572,"ECCENTRICITY":0.00011313,"INCLINATION":53.1573,"RA_OF_ASC_NODE":185.3217,"ARG_OF_PERICENTER":75.0584,"MEAN_ANOMALY":285.0542,"EPHEMERIS_TYPE":0,"CLASSIFICATION_TYPE":"U","NORAD_CAT_ID":62861,"ELEMENT_SET_NO":999,"REV_AT_EPOCH":4820,"BSTAR":0.0013757222,"MEAN_MOTION_DOT":0.00040628,"MEAN_MOTION_DDOT":0},{"OBJECT_NAME":"STARLINK-32864","OBJECT_ID":"2025-022J","EPOCH":"2025-12-09T23:07:43.129632","MEAN_MOTION":15.3021723,"ECCENTRICITY":8.614e-5,"INCLINATION":53.1617,"RA_OF_ASC_NODE":186.3018,"ARG_OF_PERICENTER":75.2509,"MEAN_ANOMALY":284.8587,"EPHEMERIS_TYPE":0,"CLASSIFICATION_TYPE":"U","NORAD_CAT_ID":62862,"ELEMENT_SET_NO":999,"REV_AT_EPOCH":4816,"BSTAR":0.0011617719,"MEAN_MOTION_DOT":0.00034226,"MEAN_MOTION_DDOT":0},{"OBJECT_NAME":"STARLINK-32808","OBJECT_ID":"2025-022K","EPOCH":"2025-12-09T23:39:37.902240","MEAN_MOTION":15.30236259,"ECCENTRICITY":4.91e-5,"INCLINATION":53.1585,"RA_OF_ASC_NODE":186.4511,"ARG_OF_PERICENTER":91.6978,"MEAN_ANOMALY":268.4079,"EPHEMERIS_TYPE":0,"CLASSIFICATION_TYPE":"U","NORAD_CAT_ID":62863,"ELEMENT_SET_NO":999,"REV_AT_EPOCH":4816,"BSTAR":0.0014583665,"MEAN_MOTION_DOT":0.00043133,"MEAN_MOTION_DDOT":0},{"OBJECT_NAME":"STARLINK-32862","OBJECT_ID":"2025-022L","EPOCH":"2025-12-09T23:47:13.844544","MEAN_MOTION":15.30233985,"ECCENTRICITY":4.824e-5,"INCLINATION":53.1581,"RA_OF_ASC_NODE":186.4873,"ARG_OF_PERICENTER":75.5404,"MEAN_ANOMALY":284.565,"EPHEMERIS_TYPE":0,"CLASSIFICATION_TYPE":"U","NORAD_CAT_ID":62864,"ELEMENT_SET_NO":999,"REV_AT_EPOCH":4816,"BSTAR":0.0017676278,"MEAN_MOTION_DOT":0.00052418,"MEAN_MOTION_DDOT":0},{"OBJECT_NAME":"STARLINK-32841","OBJECT_ID":"2025-022M","EPOCH":"2025-12-09T23:18:21.632544","MEAN_MOTION":15.30213003,"ECCENTRICITY":0.0001055,"INCLINATION":53.159,"RA_OF_ASC_NODE":186.3638,"ARG_OF_PERICENTER":74.3576,"MEAN_ANOMALY":285.7541,"EPHEMERIS_TYPE":0,"CLASSIFICATION_TYPE":"U","NORAD_CAT_ID":62865,"ELEMENT_SET_NO":999,"REV_AT_EPOCH":4815,"BSTAR":0.0015455673,"MEAN_MOTION_DOT":0.00045716,"MEAN_MOTION_DDOT":0},{"OBJECT_NAME":"STARLINK-32695","OBJECT_ID":"2025-022N","EPOCH":"2025-12-10T00:11:22.551360","MEAN_MOTION":15.30217483,"ECCENTRICITY":4.492e-5,"INCLINATION":53.1587,"RA_OF_ASC_NODE":185.8799,"ARG_OF_PERICENTER":184.4574,"MEAN_ANOMALY":175.6423,"EPHEMERIS_TYPE":0,"CLASSIFICATION_TYPE":"U","NORAD_CAT_ID":62866,"ELEMENT_SET_NO":999,"REV_AT_EPOCH":4817,"BSTAR":0.0011125264,"MEAN_MOTION_DOT":0.00032754,"MEAN_MOTION_DDOT":0},{"OBJECT_NAME":"STARLINK-32846","OBJECT_ID":"2025-022P","EPOCH":"2025-12-10T06:54:57.069792","MEAN_MOTION":15.30200941,"ECCENTRICITY":0.00019478,"INCLINATION":53.1586,"RA_OF_ASC_NODE":184.7686,"ARG_OF_PERICENTER":84.7401,"MEAN_ANOMALY":275.3822,"EPHEMERIS_TYPE":0,"CLASSIFICATION_TYPE":"U","NORAD_CAT_ID":62867,"ELEMENT_SET_NO":999,"REV_AT_EPOCH":4821,"BSTAR":0.0013510651,"MEAN_MOTION_DOT":0.00039872,"MEAN_MOTION_DDOT":0},{"OBJECT_NAME":"STARLINK-32822","OBJECT_ID":"2025-022Q","EPOCH":"2025-12-09T23:22:54.933888","MEAN_MOTION":15.30236308,"ECCENTRICITY":4.599e-5,"INCLINATION":53.1594,"RA_OF_ASC_NODE":186.3801,"ARG_OF_PERICENTER":82.9042,"MEAN_ANOMALY":277.2011,"EPHEMERIS_TYPE":0,"CLASSIFICATION_TYPE":"U","NORAD_CAT_ID":62868,"ELEMENT_SET_NO":999,"REV_AT_EPOCH":4816,"BSTAR":0.0013242867,"MEAN_MOTION_DOT":0.00039113,"MEAN_MOTION_DDOT":0},{"OBJECT_NAME":"STARLINK-32813","OBJECT_ID":"2025-022R","EPOCH":"2025-12-09T20:36:05.397120","MEAN_MOTION":15.3021613,"ECCENTRICITY":9.991e-5,"INCLINATION":53.1584,"RA_OF_ASC_NODE":187.0811,"ARG_OF_PERICENTER":84.4663,"MEAN_ANOMALY":275.6452,"EPHEMERIS_TYPE":0,"CLASSIFICATION_TYPE":"U","NORAD_CAT_ID":62869,"ELEMENT_SET_NO":999,"REV_AT_EPOCH":4814,"BSTAR":0.001434991,"MEAN_MOTION_DOT":0.00042405,"MEAN_MOTION_DDOT":0}]
