STARLINK-32868          
1 62854U 25022A   25344.26493385  .00040743  00000+0  13784-2 0  9996
2 62854  53.1576 184.6397 0000200 170.8253 189.2751 15.30242286 49021
STARLINK-32867          
1 62855U 25022B   25343.94153139  .00032439  00000+0  11018-2 0  9992
2 62855  53.1569 186.1666 0000657 127.7929 232.3132 15.30223515 48168
STARLINK-32860          
1 62856U 25022C   25344.25660896  .00033512  00000+0  11375-2 0  9990
2 62856  53.1575 185.2945 0000282 357.5758   2.5241 15.30228128 48201
STARLINK-32873          
1 62857U 25022D   25343.99429786  .00038897  00000+0  13175-2 0  9993
2 62857  53.1576 186.5074 0000761  77.5433 282.5653 15.30225255 48161
STARLINK-32866          
1 62858U 25022E   25344.27232344  .00045308  00000+0  15317-2 0  9993
2 62858  53.1583 184.6833 0002870  76.4614 283.6706 15.30217328 48213
STARLINK-32869          
1 62859U 25022F   25344.28391966  .00039411  00000+0  13330-2 0  9992
2 62859  53.1607 184.7436 0001533  85.3855 274.7321 15.30266368 48214
STARLINK-32831          
1 62860U 25022G   25344.29238041  .00042311  00000+0  14323-2 0  9995
2 62860  53.1600 184.8121 0002090  82.1131 278.0107 15.30203959 48207
STARLINK-32859          
1 62861U 25022H   25344.26083293  .00040628  00000+0  13757-2 0  9999
2 62861  53.1573 185.3217 0001131  75.0584 285.0542 15.30215572 48202
STARLINK-32864          
1 62862U 25022J   25343.96369363  .00034226  00000+0  11618-2 0  9992
2 62862  53.1617 186.3018 0000861  75.2509 284.8587 15.30217230 48164
STARLINK-32808          
1 62863U 25022K   25343.98585535  .00043133  00000+0  14584-2 0  9998
2 62863  53.1585 186.4511 0000491  91.6978 268.4079 15.30236259 48165
STARLINK-32862          
1 62864U 25022L   25343.99113246  .00052418  00000+0  17676-2 0  9997
2 62864  53.1581 186.4873 0000482  75.5404 284.5650 15.30233985 48165
STARLINK-32841          
1 62865U 25022M   25343.97108371  .00045716  00000+0  15456-2 0  9996
2 62865  53.1590 186.3638 0001055  74.3576 285.7541 15.30213003 48158
STARLINK-32695          
1 62866U 25022N   25344.00789990  .00032754  00000+0  11125-2 0  9991
2 62866  53.1587 185.8799 0000449 184.4574 175.6423 15.30217483 48178
STARLINK-32846          
1 62867U 25022P   25344.28816053  .00039872  00000+0  13511-2 0  9992
2 62867  53.1586 184.7686 0001947  84.7401 275.3822 15.30200941 48213
STARLINK-32822          
1 62868U 25022Q   25343.97424692  .00039113  00000+0  13243-2 0  9992
2 62868  53.1594 186.3801 0000459  82.9042 277.2011 15.30236308 48169
STARLINK-32813          
1 62869U 25022R   25343.85839580  .00042405  00000+0  14350-2 0  9994
2 62869  53.1584 187.0811 0000999  84.4663 275.6452 15.30216130 48143
